ATCOCode,NaptanCode,PlateCode,CleardownCode,CommonName,CommonNameLang,ShortCommonName,ShortCommonNameLang,Landmark,LandmarkLang,Street,StreetLang,Crossing,CrossingLang,Indicator,IndicatorLang,Bearing,NptgLocalityCode,LocalityName,ParentLocalityName,GrandParentLocalityName,Town,TownLang,Suburb,SuburbLang,LocalityCentre,GridType,Easting,Northing,Longitude,Latitude,StopType,BusStopType,TimingStatus,DefaultWaitTime,Notes,NotesLang,AdministrativeAreaCode,CreationDateTime,ModificationDateTime,RevisionNumber,Modification,Status
9400ZZNONGT2,ntmwtpda,,,NG2 Tram Stop,,,,NG2 Business Park,,Enterprise Way,,,,NET W-bound,,,N0060172,Lenton Lane Industrial Estate,Nottingham,,Nottingham,,,,0,U,456196,338595,-1.16522019,52.94181446,PLT,,,,,,147,2014-11-06T10:50:00,2014-11-06T14:16:00,1,rev,act
9400ZZNONLE,,,,Noel Street Tram Stop,,,,Noel Street,,Noel Street,,,,,,,E0040133,Hyson Green,Nottingham,,Nottingham,,Hyson Green,,1,U,455937,341415,-1.168587968,52.96718842,MET,,,,,,147,2006-04-13T00:00:00,2009-03-18T16:44:00,1,rev,act
9400ZZNONLE1,ntmatwda,,,Noel Street Tram Stop,,,,Noel Street,,Noel Street,,,,NET14,,,E0040133,Hyson Green,Nottingham,,Nottingham,,Hyson Green,,1,U,455929,341429,-1.168704654,52.96731509,PLT,,,,,,147,2006-04-13T00:00:00,2009-08-21T11:02:00,5,rev,act
9400ZZNONLE2,,,,Noel Street Tram Stop,,,,Terrace Street,,Noel Street,,,,Platform 2,,,E0040133,Hyson Green,Nottingham,,,,,,0,U,455927,341366,-1.16874529,52.96674904,PLT,,,,,,147,2004-10-24T00:00:00,2009-03-18T16:46:00,2,rev,del
9400ZZNODVL,,,,David Lane Tram Stop,,,,David Lane,,Vernon Road,,,,,,,N0073055,Basford,Nottingham,,Nottingham,,Basford,,1,U,455003,343372,-1.182161022,52.98487491,MET,,,,,,147,2006-04-13T00:00:00,2009-03-18T16:35:00,1,rev,act
9400ZZNODVL1,ntmatwgj,,,David Lane Tram Stop,,,,David Lane,,Vernon Road,,,,NET23,,,N0073055,Basford,Nottingham,,Nottingham,,Basford,,1,U,455005,343374,-1.182130896,52.98489268,PLT,,,,,,147,2006-04-13T00:00:00,2009-08-21T11:15:00,3,rev,act
9400ZZNODVL2,ntmatwgm,,,David Lane Tram Stop,,,,David Lane,,Vernon Road,,,,NET24,,,N0073055,Basford,Nottingham,,Nottingham,,Basford,,1,U,455011,343378,-1.182040855,52.98492802,PLT,,,,,,147,2006-04-13T00:00:00,2009-08-21T11:16:00,3,rev,act
9400ZZNOGRE,,,,Gregory Street Tram Stop,,,,The Red Cow (ph),,Lenton Lane,,,,,,,N0073065,Lenton,Nottingham,,Nottingham,,,,0,U,455399,338815,-1.177041119,52.94387457,MET,,,,,,147,2014-11-06T10:11:00,2014-11-06T14:06:00,1,rev,act
9400ZZNOGRE1,ntmwtpgj,,,Gregory Street Tram Stop,,,,The Red Cow (ph),,Lenton Lane,,,,NET E-bound,,,N0073065,Lenton,Nottingham,,Nottingham,,,,0,U,455399,338817,-1.177040778,52.94389254,PLT,,,,,,147,2014-11-06T10:12:00,2014-11-06T14:06:00,1,rev,act
9400ZZNOGRE2,ntmwtpgd,,,Gregory Street Tram Stop,,,,The Red Cow (ph),,Lenton Lane,,,,NET W-bound,,,N0073065,Lenton,Nottingham,,Nottingham,,,,0,U,455399,338813,-1.17704146,52.94385659,PLT,,,,,,147,2014-11-06T10:17:00,2014-11-06T14:06:00,1,rev,act
9400ZZNOHBV,,,,Highbury Vale Tram Stop,,,,Highbury Vale,,Highbury Vale,,,,,,,E0040132,Highbury Vale,Nottingham,,Nottingham,,Highbury Vale,,1,U,454472,343902,-1.189980484,52.98969282,MET,,,,,,147,2006-04-13T00:00:00,2009-03-18T16:36:00,1,rev,act
9400ZZNOHBV1,ntmatwgp,,,Highbury Vale Tram Stop,,,,Highbury Vale,,Highbury Vale,,,,NET25,,,E0040132,Highbury Vale,Nottingham,,Nottingham,,Highbury Vale,,1,U,454484,343908,-1.189800731,52.98974553,PLT,,,,,,147,2006-04-13T00:00:00,2010-11-16T10:11:00,4,rev,act
9400ZZNOHBV2,ntmatwgt,,,Highbury Vale Tram Stop,,,,Highbury Vale,,Highbury Vale,,,,NET26,,,E0040132,Highbury Vale,Nottingham,,Nottingham,,Highbury Vale,,1,U,454493,343917,-1.189665159,52.98982551,PLT,,,,,,147,2006-04-13T00:00:00,2010-11-16T10:11:00,4,rev,act
9400ZZNOHBV3,ntmatwgw,,,Highbury Vale Tram Stop,,,,Highbury Vale Branch Off,,Highbury Vale,,,,NET27,,,E0040132,Highbury Vale,Nottingham,,Nottingham,,Highbury Vale,,1,U,454443,343869,-1.190417993,52.98939914,PLT,,,,,,147,2006-04-13T00:00:00,2010-11-16T10:11:00,5,rev,act
9400ZZNOHBV4,ntmatwja,,,Highbury Vale Tram Stop,,,,Highbury Vale Branch Off,,Highbury Vale,,,,NET28,,,E0040132,Highbury Vale,Nottingham,,Nottingham,,Highbury Vale,,1,U,454446,343876,-1.190372131,52.98946176,PLT,,,,,,147,2006-04-13T00:00:00,2010-11-16T10:12:00,5,rev,act
9400ZZNOHGM,,,,Hyson Green Market Tram Stop,,,,St Paul's Avenue,,Radford Road,,,,,,,E0040133,Hyson Green,Nottingham,,Nottingham,,Hyson Green,,0,U,455792,341296,-1.170767124,52.96613389,MET,,,,,,147,2006-04-13T00:00:00,2009-03-18T16:37:00,1,rev,act
9400ZZNOHGM1,ntmatwdm,,,Hyson Green Market Tram Stop,,,,St Paul's Avenue,,Radford Road,,,,NET17,,,E0040133,Hyson Green,Nottingham,,Nottingham,,Hyson Green,,0,U,455774,341332,-1.171028905,52.96645934,PLT,,,,,,147,2006-04-13T00:00:00,2009-08-21T11:04:00,2,rev,act
9400ZZNOBLV2,ntmwtmtp,,,University Boulevard Tram Stop,,,,University Boulevard,,University Boulevard,,,,NET W-bound,,,N0077200,Nottingham University Main Campus,Nottingham,,Nottingham University Main Campus,,,,0,U,453724,337493,-1.202183025,52.93216184,PLT,,,,,,147,2014-11-06T13:15:00,2014-11-06T14:31:00,1,rev,act
9400ZZNOBTH,,,,Butler's Hill Tram Stop,,,,,,Butlers Hill,,,,,,,E0020329,Butlers Hill,Hucknall,,Hucknall,,Butlers Hill,,0,U,454525,348252,-1.18845818,53.02878632,MET,,,,,,147,2006-04-13T00:00:00,2011-01-24T14:50:00,4,rev,act
9400ZZNOBTH1,ntsgtdja,,,Butler's Hill Tram Stop,,,,,,Butlers Hill,,,,NET38,,,E0020329,Butlers Hill,Hucknall,,Hucknall,,Butlers Hill,,0,U,454519,348259,-1.188546452,53.02884985,PLT,,,,,,147,2006-04-13T00:00:00,2010-04-12T17:41:00,4,rev,act
9400ZZNOBTH2,ntsgtdjd,,,Butler's Hill Tram Stop,,,,,,Butlers Hill,,,,NET39,,,E0020329,Butlers Hill,Hucknall,,Hucknall,,Butlers Hill,,0,U,454531,348255,-1.188368221,53.02881267,PLT,,,,,,147,2006-04-13T00:00:00,2010-04-12T17:41:00,3,rev,act
9400ZZNOBWF,,,,Bulwell Forest Tram Stop,,,,Bestwood Road,,Bestwood Road,,,,,,,N0077409,Bulwell Forest,Bulwell,Nottingham,Nottingham,,Bulwell Forest,,1,U,454405,345655,-1.190683997,53.00545605,MET,,,,,,147,2006-04-13T00:00:00,2009-03-18T16:31:00,1,rev,act
9400ZZNOBWF1,ntmatwjw,,,Bulwell Forest Tram Stop,,,,Bestwood Road,,Bestwood Road,,,,NET34,,,N0077409,Bulwell Forest,Bulwell,Nottingham,Nottingham,,Bulwell Forest,,1,U,454445,345735,-1.190074511,53.00617105,PLT,,,,,,147,2006-04-13T00:00:00,2009-08-21T11:19:00,3,rev,act
9400ZZNOBWF2,ntmatwma,,,Bulwell Forest Tram Stop,,,,Bestwood Road,,Bestwood Road,,,,NET35,,,N0077409,Bulwell Forest,Bulwell,Nottingham,Nottingham,,Bulwell Forest,,1,U,454449,345735,-1.190014907,53.00617065,PLT,,,,,,147,2006-04-13T00:00:00,2009-08-21T11:20:00,3,rev,act
9400ZZNOCLC,,,,Clifton Centre Tram Stop,,,,Clifton Leisure Centre,,Southchurch Drive,,,,,,,E0040127,Clifton,Nottingham,,Nottingham,,,,0,U,455456,334348,-1.176954552,52.90371773,MET,,,,,,147,2014-11-06T09:19:00,2014-11-06T14:01:00,1,rev,act
9400ZZNOCLC1,ntmwtpjd,,,Clifton Centre Tram Stop,,,,Clifton Leisure Centre,,Southchurch Drive,,,,NET NE-bound,,,E0040127,Clifton,Nottingham,,Nottingham,,,,0,U,455454,334350,-1.176983943,52.90373591,PLT,,,,,,147,2014-11-06T09:31:00,2014-11-06T14:00:00,1,rev,act
9400ZZNOCLC2,ntmwtpja,,,Clifton Centre Tram Stop,,,,Clifton Leisure Centre,,Southchurch Drive,,,,NET SW-bound,,,E0040127,Clifton,Nottingham,,Nottingham,,,,0,U,455459,334347,-1.176910125,52.90370843,PLT,,,,,,147,2014-11-06T09:42:00,2014-11-06T14:00:00,1,rev,act
9400ZZNOCLS,,,,Clifton South Tram Stop,,,,Clifton Park and Ride,,N/A,,,,,,,E0040127,Clifton,Nottingham,,Clifton,,Clifton,,0,U,454406,333550,-1.192696972,52.89665205,MET,,,,,,147,2015-09-03T11:51:00,2015-09-03T12:30:00,2,rev,act
9400ZZNOMRB1,ntmatwmd,,,Moor Bridge Tram Stop,,,,Hucknall Lane,,Hucknall Lane,,,,NET36,,,N0077398,Moor Bridge,Nottingham,,Nottingham,,Moor Bridge,,1,U,454637,346660,-1.18705735,53.01446566,PLT,,,,,,147,2006-04-13T00:00:00,2009-09-16T10:01:00,3,rev,act
9400ZZNOMRB2,ntmatwmg,,,Moor Bridge Tram Stop,,,,Hucknall Lane,,Hucknall Lane,,,,NET37,,,N0077398,Moor Bridge,Nottingham,,Nottingham,,Moor Bridge,,1,U,454642,346660,-1.186982831,53.01446515,PLT,,,,,,147,2006-04-13T00:00:00,2009-09-16T10:02:00,4,rev,act
9400ZZNONGT,,,,NG2 Tram Stop,,,,NG2 Business Park,,Enterprise Way,,,,,,,N0060172,Lenton Lane Industrial Estate,Nottingham,,Nottingham,,,,0,U,456196,338598,-1.165219671,52.94184142,MET,,,,,,147,2014-11-06T10:45:00,2014-11-06T14:16:00,1,rev,act
9400ZZNONGT1,ntmwtpdg,,,NG2 Tram Stop,,,,NG2 Business Park,,Enterprise Way,,,,NET E-bound,,,N0060172,Lenton Lane Industrial Estate,Nottingham,,Nottingham,,,,0,U,456196,338602,-1.16521898,52.94187737,PLT,,,,,,147,2014-11-06T10:47:00,2014-11-06T14:16:00,1,rev,act
9400ZZNOWFV,,,,Wilford Village Tram Stop,,,,Wilford Toll Bridge,,Main Road,,,,,,,E0040155,Wilford,Nottingham,,Nottingham,,,,0,U,456845,337925,-1.15568106,52.93572411,MET,,,,,,147,2014-11-06T13:25:00,2014-11-06T14:35:00,1,rev,act
9400ZZNOWFV1,ntmwtmtd,,,Wilford Village Tram Stop,,,,Wilford Toll Bridge,,Main Road,,,,NET NE-bound,,,E0040155,Wilford,Nottingham,,Nottingham,,,,0,U,456843,337926,-1.155710638,52.93573331,PLT,,,,,,147,2014-11-06T13:28:00,2014-11-06T14:35:00,1,rev,act
9400ZZNOWFV2,ntmwtmta,,,Wilford Village Tram Stop,,,,Wilford Toll Bridge,,Main Road,,,,NET SW-bound,,,E0040155,Wilford,Nottingham,,Nottingham,,,,0,U,456847,337923,-1.155651656,52.93570592,PLT,,,,,,147,2014-11-06T13:37:00,2014-11-06T14:35:00,1,rev,act
9400ZZNOWKS,,,,Wilkinson Street Tram Stop,,,,Wilkinson Street,,Wilkinson Street,,,,,,,N0073055,Basford,Nottingham,,Nottingham,,Basford,,0,U,455295,341940,-1.178056294,52.97197372,MET,,,,,,147,2006-04-13T00:00:00,2013-07-26T08:56:00,2,rev,act
9400ZZNOWKS1,ntmatwdt,,,Wilkinson Street Tram Stop,,,,Wilkinson Street,,Wilkinson Street,,,,NET19,,,N0073055,Basford,Nottingham,,Nottingham,,Basford,,0,U,455298,341921,-1.178014866,52.97180263,PLT,,,,,,147,2006-04-13T00:00:00,2009-08-21T11:05:00,3,rev,act
9400ZZNOWKS2,ntmatwdw,,,Wilkinson Street Tram Stop,,,,Wilkinson Street,,Wilkinson Street,,,,NET20,,,N0073055,Basford,Nottingham,,Nottingham,,Basford,,0,U,455305,341933,-1.177908596,52.97190977,PLT,,,,,,147,2006-04-13T00:00:00,2009-08-21T11:05:00,3,rev,act
9400ZZNOUNI,,,,University of Nottingham Tram Stop,,,,University Boulevard,,University Boulevard,,,,,,,N0077200,Nottingham University Main Campus,Nottingham,,Nottingham University Main Campus,,,,0,U,454649,338068,-1.188326437,52.937237,MET,,,,,,147,2014-11-06T13:17:00,2014-11-06T14:33:00,1,rev,act
9400ZZNOBCF,,,,Beaconsfield Street Tram Stop,,,,Beaconsfield Street,,Noel Street,,,,,,,E0040129,Forest Fields,Nottingham,,Nottingham,,Forest Fields,,0,U,455785,341752,-1.170792924,52.97023327,MET,,,,,,147,2006-04-13T00:00:00,2009-03-18T16:24:00,2,rev,act
9400ZZNOBCF1,ntmatwdg,,,Beaconsfield Street Tram Stop,,,,Beaconsfield Street,,Noel Street,,,,NET15,,,E0040129,Forest Fields,Nottingham,,Nottingham,,Forest Fields,,0,U,455812,341733,-1.170394201,52.97005969,PLT,,,,,,147,2006-04-13T00:00:00,2009-08-21T11:03:00,5,rev,act
9400ZZNOBCF2,,,,Beaconsfield Street Tram Stop,,,,Noel Street,,Beaconsfield Street,,,,Platform 2,,,E0040133,Hyson Green,Nottingham,,,,,,1,U,455785,341751,-1.170793096,52.97022428,PLT,,,,,,147,2004-10-24T00:00:00,2009-03-18T16:28:00,1,rev,del
9400ZZNOMDW2,ntmwtpdj,,,Meadows Way West Tram Stop,,,,Meadows Way,,Meadows Way,,,,NET W-bound,,,E0040140,Meadows,Nottingham,,Nottingham,,,,0,U,456768,338772,-1.156678601,52.94334531,PLT,,,,,,147,2014-11-06T10:44:00,2014-11-06T14:14:00,1,rev,act
9400ZZNONTU2,ntmatwaj,,,NTU Tram Stop,,,,Nottingham Trent University,,Goldsmith Street,,,,NET09,,,N0077199,Nottingham Trent University in City Centre,Nottingham,,Nottingham,,Nottingham Trent University,,0,U,456865,340394,-1.154951286,52.95791403,PLT,,,,,,147,2006-04-13T00:00:00,2010-11-16T10:13:00,4,rev,act
9400ZZNOBFD,,,,Basford Tram Stop,,,,Vernon Road,,Vernon Road,,,,,,,N0073055,Basford,Nottingham,,Nottingham,,Basford,,0,U,455248,343018,-1.178572416,52.98166791,MET,,,,,,147,2006-04-13T00:00:00,2009-03-18T16:29:00,1,rev,act
9400ZZNOBFD1,ntmatwga,,,Basford Tram Stop,,,,Vernon Road,,Vernon Road,,,,NET21,,,N0073055,Basford,Nottingham,,Nottingham,,Basford,,0,U,455259,343013,-1.17840945,52.98162184,PLT,,,,,,147,2006-04-13T00:00:00,2009-08-21T11:05:00,3,rev,act
9400ZZNOCLS1,ntmwtmgj,,,Clifton South Tram Stop,,,,Clifton Park and Ride,,N/A,,,,NET NE-bound,,,E0040127,Clifton,Nottingham,,Clifton,,Clifton,,0,U,454405,333552,-1.192711502,52.89667013,PLT,,,,,,147,2015-09-03T11:54:00,2015-09-03T12:30:00,1,rev,act
9400ZZNOCLS2,ntmwtmgd,,,Clifton South Tram Stop,,,,Clifton Park and Ride,,N/A,,,,NET NE-bound,,,E0040127,Clifton,Nottingham,,Clifton,,Clifton,,0,U,454407,333549,-1.192682276,52.89664296,PLT,,,,,,147,2015-09-03T11:56:00,2015-09-03T12:30:00,1,rev,act
9400ZZNOCOM,,,,Compton Acres Tram Stop,,,,Ruddington Lane Rec.,,N/A,,,,,,,N0061145,Compton Acres,West Bridgford,,Nottingham,,,,0,U,456744,336071,-1.157507114,52.91907046,MET,,,,,,147,2014-11-06T09:53:00,2014-11-06T14:04:00,1,rev,act
9400ZZNOCOM1,ntmwtpgp,,,Compton Acres Tram Stop,,,,Ruddington Lane Rec.,,N/A,,,,NET S-bound,,,N0061145,Compton Acres,West Bridgford,,Nottingham,,,,0,U,456748,336071,-1.15744763,52.91907004,PLT,,,,,,147,2014-11-06T10:05:00,2014-11-06T14:04:00,1,rev,act
9400ZZNOCOM2,ntmwtpgm,,,Compton Acres Tram Stop,,,,Ruddington Lane Rec.,,N/A,,,,NET N-bound,,,N0061145,Compton Acres,West Bridgford,,Nottingham,,,,0,U,456741,336071,-1.157551727,52.91907077,PLT,,,,,,147,2014-11-06T10:09:00,2014-11-06T14:04:00,1,rev,act
9400ZZNOMRB,,,,Moor Bridge Tram Stop,,,,Hucknall Lane,,Hucknall Lane,,,,,,,N0077398,Moor Bridge,Nottingham,,Nottingham,,Moor Bridge,,1,U,454641,346660,-1.186997735,53.01446526,MET,,,,,,147,2006-04-13T00:00:00,2009-03-18T16:44:00,1,rev,act
9400ZZNOBFD2,ntmatwgd,,,Basford Tram Stop,,,,Vernon Road,,Vernon Road,,,,NET22,,,N0073055,Basford,Nottingham,,Nottingham,,Basford,,0,U,455267,343016,-1.178289798,52.98164798,PLT,,,,,,147,2006-04-13T00:00:00,2009-08-21T11:14:00,3,rev,act
9400ZZNOBLV,,,,University Boulevard Tram Stop,,,,University Boulevard,,University Boulevard,,,,,,,N0077200,Nottingham University Main Campus,Nottingham,,Nottingham University Main Campus,,,,0,U,453725,337497,-1.202167489,52.93219769,MET,,,,,,147,2014-11-06T12:22:00,2014-11-06T14:31:00,1,rev,act
9400ZZNOBLV1,ntmwtmtw,,,University Boulevard Tram Stop,,,,University Boulevard,,University Boulevard,,,,NET E-bound,,,N0077200,Nottingham University Main Campus,Nottingham,,Nottingham University Main Campus,,,,0,U,453725,337501,-1.202166828,52.93223364,PLT,,,,,,147,2014-11-06T13:13:00,2014-11-06T14:31:00,1,rev,act
9400ZZNOHSC1,ntmatwam,,,High School Tram Stop,,,,High School,,Waverley Street,,,,NET10,,,E0040114,Arboretum,Nottingham,,Nottingham,,Arboretum,,1,U,456414,340881,-1.161579466,52.96233883,PLT,,,,,,147,2006-04-13T00:00:00,2009-08-21T11:00:00,3,rev,act
9400ZZNOHSC2,ntmatwap,,,High School Tram Stop,,,,High School,,Waverley Street,,,,NET11,,,E0040114,Arboretum,Nottingham,,Nottingham,,Arboretum,,1,U,456422,340889,-1.161458989,52.9624099,PLT,,,,,,147,2006-04-13T00:00:00,2009-08-21T11:01:00,3,rev,act
9400ZZNOHOL,,,,Holy Trinity Tram Stop,,,,Holy Trinity Church,,Southchurch Drive,,,,,,,E0040127,Clifton,Nottingham,,Nottingham,,,,0,U,455175,333599,-1.181258716,52.89701427,MET,,,,,,147,2014-11-06T10:28:00,2014-11-06T14:09:00,1,rev,act
9400ZZNOHOL1,ntmwtpga,,,Holy Trinity Tram Stop,,,,Holy Trinity Church,,Southchurch Drive,,,,NET NE-bound,,,E0040127,Clifton,Nottingham,,Nottingham,,,,0,U,455173,333602,-1.181287935,52.89704144,PLT,,,,,,147,2014-11-06T10:29:00,2014-11-06T14:09:00,1,rev,act
9400ZZNOHOL2,ntmwtpdw,,,Holy Trinity Tram Stop,,,,Holy Trinity Church,,Southchurch Drive,,,,NET SW-bound,,,E0040127,Clifton,Nottingham,,Nottingham,,,,0,U,455177,333597,-1.181229327,52.89699609,PLT,,,,,,147,2014-11-06T10:32:00,2014-11-06T14:09:00,1,rev,act
9400ZZNOHSC,,,,High School Tram Stop,,,,High School,,Waverley Street,,,,,,,E0040114,Arboretum,Nottingham,,Nottingham,,Arboretum,,1,U,456395,340911,-1.161857084,52.96261047,MET,,,,,,147,2006-04-13T00:00:00,2009-03-18T16:41:00,1,rev,act
9400ZZNOSCD1,ntmwtmwj,,,Southchurch Drive North Tram Stop,,,,St. Francis Church,,Southchurch Drive,,,,NET NE-bound,,,E0040127,Clifton,Nottingham,,Nottingham,,,,0,U,455885,335136,-1.17044188,52.91075622,PLT,,,,,,147,2014-11-06T12:12:00,2014-11-06T14:29:00,1,rev,act
9400ZZNOSCD2,ntmwtmwg,,,Southchurch Drive North Tram Stop,,,,St. Francis Church,,Southchurch Drive,,,,NET SW-bound,,,E0040127,Clifton,Nottingham,,Nottingham,,,,0,U,455889,335130,-1.170383437,52.91070187,PLT,,,,,,147,2014-11-06T12:14:00,2014-11-06T14:29:00,1,rev,act
9400ZZNOSHN,,,,Shipstone Street Tram Stop,,,,Shipstone Street,,Shipstone Street,,,,,,,E0040146,Radford,Nottingham,,Nottingham,,Radford,,0,U,455604,341896,-1.173463075,52.97154634,MET,,,,,,147,2006-04-13T00:00:00,2012-01-30T13:11:00,2,rev,act
9400ZZNOSHN1,ntmatwdj,,,Shipstone Street Tram Stop,,,,Shipstone Street,,Shipstone Street,,,,NET16,,,E0040146,Radford,Nottingham,,Nottingham,,Radford,,0,U,455603,341895,-1.173478135,52.97153746,PLT,,,,,,147,2006-04-13T00:00:00,2009-08-21T11:03:00,5,rev,act
9400ZZNOSHN2,,,,Shipstone Street Tram Stop,,,,Fisher Street,,Shipstone Street,,,,Platform 2,,,E0040146,Radford,Nottingham,,,,,,0,U,455603,341894,-1.173478307,52.97152847,PLT,,,,,,147,2004-10-24T00:00:00,2010-03-25T13:23:00,3,rev,del
9400ZZNOSUM,,,,Summerwood Lane Tram Stop,,,,Summerwood Lane,,Farnborough Road,,,,,,,E0040127,Clifton,Nottingham,,Nottingham,,,,0,U,454727,333588,-1.18791943,52.8969611,MET,,,,,,147,2014-11-06T12:16:00,2014-11-06T14:30:00,1,rev,act
9400ZZNOBWL,,,,Bulwell Tram Stop,,,,Bulwell Station,,Station Road,,,,,,,E0040124,Bulwell,Nottingham,,Nottingham,,Bulwell,,1,U,454110,345008,-1.195187857,52.99967046,MET,,,,,,147,2006-04-13T00:00:00,2009-03-18T16:33:00,1,rev,act
9400ZZNOBWL1,ntmatwjp,,,Bulwell Tram Stop,,,,Bulwell Station,,Station Road,,,,NET32,,,E0040124,Bulwell,Nottingham,,Nottingham,,Bulwell,,1,U,454084,344971,-1.195581406,52.99934051,PLT,,,,,,147,2006-04-13T00:00:00,2009-08-21T11:19:00,3,rev,act
9400ZZNOBWL2,ntmatwjt,,,Bulwell Tram Stop,,,,Bulwell Station,,Station Road,,,,NET33,,,E0040124,Bulwell,Nottingham,,Nottingham,,Bulwell,,1,U,454088,344971,-1.195521811,52.99934011,PLT,,,,,,147,2006-04-13T00:00:00,2009-08-21T11:19:00,3,rev,act
9400ZZNOCDH,,,,Cinderhill Tram Stop,,,,Cinderhill,,Cinderhill Road,,,,,,,E0040126,Cinderhill,Nottingham,,Nottingham,,Cinderhill,,1,U,453752,343815,-1.20071959,52.98898339,MET,,,,,,147,2006-04-13T00:00:00,2009-03-18T16:34:00,1,rev,act
9400ZZNOCDH1,ntmatwjd,,,Cinderhill Tram Stop,,,,Cinderhill,,Cinderhill Road,,,,NET29,,,E0040126,Cinderhill,Nottingham,,Nottingham,,Cinderhill,,1,U,453754,343814,-1.200689966,52.9889742,PLT,,,,,,147,2006-04-13T00:00:00,2009-08-21T11:18:00,3,rev,act
9400ZZNOCDH2,ntmatwjg,,,Cinderhill Tram Stop,,,,Cinderhill,,Cinderhill Road,,,,NET30,,,E0040126,Cinderhill,Nottingham,,Nottingham,,Cinderhill,,1,U,453758,343814,-1.200630385,52.9889738,PLT,,,,,,147,2006-04-13T00:00:00,2009-08-21T11:18:00,3,rev,act
9400ZZNOPHP,,,,Phoenix Park Tram Stop,,,,Phoenix Park,,Millennium Way East,,,,,,,N0060188,Phoenix Park,Nottingham,,Nottingham,,Phoenix Park,,1,U,453327,343810,-1.207050857,52.98898082,MET,,,,,,147,2006-04-13T00:00:00,2009-03-18T16:48:00,1,rev,act
9400ZZNOPHP1,ntmatwjm,,,Phoenix Park Tram Stop,,,,Phoenix Park,,Millennium Way East,,,,NET31,,,N0060188,Phoenix Park,Nottingham,,Nottingham,,Phoenix Park,,1,U,453329,343799,-1.207022877,52.98888175,PLT,,,,,,147,2006-04-13T00:00:00,2009-08-21T11:18:00,2,rev,act
9400ZZNOPHP2,,,,Phoenix Park Tram Stop,,,,Millennium Way,,Millennium Way East,,,,Platform 2,,,N0060188,Phoenix Park,Nottingham,,,,,,0,U,453327,343809,-1.207051022,52.98897183,PLT,,,,,,147,2004-10-24T00:00:00,2009-03-18T16:48:00,2,rev,del
9400ZZNOQMC,,,,Queens Medical Centre Tram Stop,,,,QMC,,South Road,,,,,,,N0060066,Queens Medical Centre,Nottingham,,Nottingham,,,,0,U,454952,338661,-1.183718338,52.94253622,MET,,,,,,147,2014-11-06T10:59:00,2014-11-06T14:19:00,1,rev,act
9400ZZNOQMC1,ntmwtpap,,,Queens Medical Centre Tram Stop,,,,QMC,,South Road,,,,NET NE-bound,,,N0060066,Queens Medical Centre,Nottingham,,Nottingham,,,,0,U,454950,338663,-1.183747758,52.9425544,PLT,,,,,,147,2014-11-06T11:32:00,2014-11-06T14:19:00,1,rev,act
9400ZZNOQMC2,ntmwtpam,,,Queens Medical Centre Tram Stop,,,,QMC,,South Road,,,,NET SW-bound,,,N0060066,Queens Medical Centre,Nottingham,,Nottingham,,,,0,U,454955,338658,-1.183674208,52.94250895,PLT,,,,,,147,2014-11-06T11:34:00,2014-11-06T14:19:00,1,rev,act
9400ZZNOQWK,,,,Queens Walk Tram Stop,,,,Queens Walk,,Queens Walk,,,,,,,E0040140,Meadows,Nottingham,,Nottingham,,,,0,U,457191,338712,-1.150395226,52.9427612,MET,,,,,,147,2014-11-06T11:35:00,2014-11-06T14:20:00,1,rev,act
9400ZZNOQWK1,ntmwtpaj,,,Queens Walk Tram Stop,,,,Queens Walk,,Queens Walk,,,,NET NE-bound,,,E0040140,Meadows,Nottingham,,Nottingham,,,,0,U,457188,338713,-1.150439687,52.94277051,PLT,,,,,,147,2014-11-06T11:37:00,2014-11-06T14:20:00,1,rev,act
9400ZZNOQWK2,ntmwtpag,,,Queens Walk Tram Stop,,,,Queens Walk,,Queens Walk,,,,NET SW-bound,,,E0040140,Meadows,Nottingham,,Nottingham,,,,0,U,457194,338710,-1.150350941,52.94274291,PLT,,,,,,147,2014-11-06T11:40:00,2014-11-06T14:20:00,1,rev,act
9400ZZNORDF,,,,Radford Road Tram Stop,,,,Belton Street,,Radford Road,,,,,,,E0040129,Forest Fields,Nottingham,,,,,,1,U,455593,341675,-1.17366473,52.96956107,MET,,,,,,147,2006-04-13T00:00:00,2009-03-18T16:49:00,1,rev,act
9400ZZNORDF1,ntmatwdp,,,Radford Road Tram Stop,,,,Belton Street,,Radford Road,,,,NET18,,,E0040129,Forest Fields,Nottingham,,Nottingham,,Radford,,0,U,455574,341703,-1.173942812,52.96981471,PLT,,,,,,147,2006-04-13T00:00:00,2009-08-21T11:04:00,2,rev,act
9400ZZNORDF2,,,,Radford Road Tram Stop,,,,Beaconsfield Street,,Radford Road,,,,Platform 2,,,E0040129,Forest Fields,Nottingham,,,,,,0,U,455593,341674,-1.173664902,52.96955208,PLT,,,,,,147,2004-10-24T00:00:00,2010-03-25T13:24:00,3,rev,del
9400ZZNORIV,,,,Rivergreen Tram Stop,,,,Rivergreen,,Southchurch Drive,,,,,,,E0040127,Clifton,Nottingham,,Nottingham,,,,0,U,455599,334701,-1.174768472,52.90687588,MET,,,,,,147,2014-11-06T11:46:00,2014-11-06T14:22:00,1,rev,act
9400ZZNORIV1,ntmwtpad,,,Rivergreen Tram Stop,,,,Rivergreen,,Southchurch Drive,,,,NET N-bound,,,E0040127,Clifton,Nottingham,,Nottingham,,,,0,U,455596,334703,-1.174812731,52.90689417,PLT,,,,,,147,2014-11-06T11:57:00,2014-11-06T14:22:00,1,rev,act
9400ZZNORIV2,ntmwtmwt,,,Rivergreen Tram Stop,,,,Rivergreen,,Southchurch Drive,,,,NET S-bound,,,E0040127,Clifton,Nottingham,,Nottingham,,,,0,U,455603,334700,-1.174709175,52.90686648,PLT,,,,,,147,2014-11-06T11:59:00,2014-11-06T14:22:00,1,rev,act
9400ZZNORUD,,,,Ruddington Lane Tram Stop,,,,Ruddington Lane,,Ruddington Lane,,,,,,,N0061145,Compton Acres,West Bridgford,,Nottingham,,,,0,U,456695,335582,-1.158320992,52.91468033,MET,,,,,,147,2014-11-06T12:01:00,2014-11-06T14:26:00,1,rev,act
9400ZZNORUD1,ntmwtmwp,,,Ruddington Lane Tram Stop,,,,Ruddington Lane,,Ruddington Lane,,,,NET N-bound,,,N0061145,Compton Acres,West Bridgford,,Nottingham,,,,0,U,456692,335582,-1.158365601,52.91468065,PLT,,,,,,147,2014-11-06T12:07:00,2014-11-06T14:26:00,1,rev,act
9400ZZNORUD2,ntmwtpgw,,,Ruddington Lane Tram Stop,,,,Ruddington Lane,,Ruddington Lane,,,,NET S-bound,,,N0061145,Compton Acres,West Bridgford,,Nottingham,,,,0,U,456698,335582,-1.158276384,52.91468002,PLT,,,,,,147,2014-11-06T12:09:00,2014-11-06T14:26:00,1,rev,act
9400ZZNOSCD,,,,Southchurch Drive North Tram Stop,,,,St. Francis Church,,Southchurch Drive,,,,,,,E0040127,Clifton,Nottingham,,Nottingham,,,,0,U,455887,335133,-1.170412659,52.91072904,MET,,,,,,147,2014-11-06T12:11:00,2014-11-06T14:29:00,1,rev,act
9400ZZNOWFL,,,,Wilford Lane Tram Stop,,,,Becket School,,Wilford Lane,,,,,,,E0040155,Wilford,Nottingham,,Nottingham,,,,0,U,456825,336833,-1.15616945,52.925911,MET,,,,,,147,2014-11-06T13:22:00,2014-11-06T14:34:00,1,rev,act
9400ZZNOWFL1,ntmwtmtg,,,Wilford Lane Tram Stop,,,,Becket School,,Wilford Lane,,,,NET N-bound,,,E0040155,Wilford,Nottingham,,Nottingham,,,,0,U,456822,336833,-1.15621407,52.92591132,PLT,,,,,,147,2014-11-06T13:23:00,2014-11-06T14:34:00,1,rev,act
9400ZZNOWFL2,ntmwtpgt,,,Wilford Lane Tram Stop,,,,Becket School,,Wilford Lane,,,,NET S-bound,,,E0040155,Wilford,Nottingham,,Nottingham,,,,0,U,456829,336832,-1.156110132,52.92590159,PLT,,,,,,147,2014-11-06T13:24:00,2014-11-06T14:34:00,1,rev,act
9400ZZNOHGM2,,,,Hyson Green Market Tram Stop,,,,ASDA,,Radford Road,,,,Platform 2,,,E0040133,Hyson Green,Nottingham,,,,,,1,U,455750,341249,-1.171400461,52.9657158,PLT,,,,,,147,2004-10-24T00:00:00,2009-03-18T16:39:00,2,rev,del
9400ZZNONTU,,,,NTU Tram Stop,,,,Nottingham Trent University,,Goldsmith Street,,,,,,,N0077199,Nottingham Trent University in City Centre,Nottingham,,Nottingham,,Nottingham Trent University,,0,U,456818,340431,-1.155644372,52.95825156,MET,,,,,,147,2006-04-13T00:00:00,2010-11-16T10:12:00,2,rev,act
9400ZZNONTU1,ntmatwag,,,NTU Tram Stop,,,,Nottingham Trent University,,Goldsmith Street,,,,NET08,,,N0077199,Nottingham Trent University in City Centre,Nottingham,,Nottingham,,Nottingham Trent University,,0,U,456861,340388,-1.155011875,52.95786052,PLT,,,,,,147,2006-04-13T00:00:00,2010-11-16T10:12:00,4,rev,act
9400ZZNOUNI1,ntmwtmtm,,,University of Nottingham Tram Stop,,,,University Boulevard,,University Boulevard,,,,NET NE-bound,,,N0077200,Nottingham University Main Campus,Nottingham,,Nottingham University Main Campus,,,,0,U,454647,338071,-1.188355687,52.93726416,PLT,,,,,,147,2014-11-06T13:18:00,2014-11-06T14:33:00,1,rev,act
9400ZZNOUNI2,ntmwtmtj,,,University of Nottingham Tram Stop,,,,University Boulevard,,University Boulevard,,,,NET SW-bound,,,N0077200,Nottingham University Main Campus,Nottingham,,Nottingham University Main Campus,,,,0,U,454651,338066,-1.188297019,52.93721882,PLT,,,,,,147,2014-11-06T13:20:00,2014-11-06T14:33:00,1,rev,act
9400ZZNOSUM1,ntmwtmwd,,,Summerwood Lane Tram Stop,,,,Summerwood Lane,,Farnborough Road,,,,NET E-bound,,,E0040127,Clifton,Nottingham,,Nottingham,,,,0,U,454728,333590,-1.18790423,52.89697897,PLT,,,,,,147,2014-11-06T12:17:00,2014-11-06T14:30:00,1,rev,act
9400ZZNOSUM2,ntmwtmwa,,,Summerwood Lane Tram Stop,,,,Summerwood Lane,,Farnborough Road,,,,NET W-bound,,,E0040127,Clifton,Nottingham,,Nottingham,,,,0,U,454727,333585,-1.187919934,52.89693413,PLT,,,,,,147,2014-11-06T12:19:00,2014-11-06T14:30:00,1,rev,act
9400ZZNOTFR,,,,The Forest Tram Stop,,,,Forest Park& Ride Site,,Noel Street,,,,,,,N0060179,The Forest,Nottingham,,Nottingham,,The Forest,,1,U,456030,341185,-1.167243146,52.96511143,MET,,,,,,147,2006-04-13T00:00:00,2009-03-18T16:52:00,1,rev,act
9400ZZNOTFR1,ntmatwat,,,The Forest Tram Stop,,,,Forest Park& Ride Site,,Noel Street,,,,NET12,,,N0060179,The Forest,Nottingham,,Nottingham,,The Forest,,1,U,456027,341212,-1.167283144,52.96535443,PLT,,,,,,147,2006-04-13T00:00:00,2009-08-21T11:01:00,3,rev,act
9400ZZNOTFR2,ntmatwaw,,,The Forest Tram Stop,,,,Forest Park& Ride Site,,Noel Street,,,,NET13,,,N0060179,The Forest,Nottingham,,Nottingham,,The Forest,,1,U,456036,341216,-1.167148471,52.96538944,PLT,,,,,,147,2006-04-13T00:00:00,2009-08-21T11:02:00,3,rev,act
9400ZZNOMDE,,,,Meadows Embankment Tram Stop,,,,Wilford Toll Bridge,,Queens Walk,,,,,,,E0040140,Meadows,Nottingham,,Nottingham,,,,0,U,456975,338298,-1.153681702,52.93906298,MET,,,,,,147,2014-11-06T10:35:00,2014-11-06T14:11:00,1,rev,act
9400ZZNOMDE1,ntmwtpdt,,,Meadows Embankment Tram Stop,,,,Wilford Toll Bridge,,Queens Walk,,,,NET NE-bound,,,E0040140,Meadows,Nottingham,,Nottingham,,,,0,U,456972,338299,-1.15372616,52.93907229,PLT,,,,,,147,2014-11-06T10:37:00,2014-11-06T14:11:00,1,rev,act
9400ZZNOMDE2,ntmwtpdp,,,Meadows Embankment Tram Stop,,,,Wilford Toll Bridge,,Queens Walk,,,,NET SW-bound,,,E0040140,Meadows,Nottingham,,Nottingham,,,,0,U,456977,338296,-1.153652297,52.93904479,PLT,,,,,,147,2014-11-06T10:38:00,2014-11-06T14:11:00,1,rev,act
9400ZZNOMDW,,,,Meadows Way West Tram Stop,,,,Meadows Way,,Meadows Way,,,,,,,E0040140,Meadows,Nottingham,,Nottingham,,,,0,U,456767,338776,-1.156692781,52.94338137,MET,,,,,,147,2014-11-06T10:39:00,2014-11-06T14:14:00,1,rev,act
9400ZZNOMDW1,ntmwtpdm,,,Meadows Way West Tram Stop,,,,Meadows Way,,Meadows Way,,,,NET E-bound,,,E0040140,Meadows,Nottingham,,Nottingham,,,,0,U,456766,338780,-1.156706961,52.94341743,PLT,,,,,,147,2014-11-06T10:41:00,2014-11-06T14:14:00,1,rev,act
